OBJECT_NAME,OBJECT_ID,EPOCH,MEAN_MOTION,ECCENTRICITY,INCLINATION,RA_OF_ASC_NODE,ARG_OF_PERICENTER,MEAN_ANOMALY,EPHEMERIS_TYPE,CLASSIFICATION_TYPE,NORAD_CAT_ID,ELEMENT_SET_NO,REV_AT_EPOCH,BSTAR,MEAN_MOTION_DOT,MEAN_MOTION_DDOT
BEIDOU-3 G2,2020-017A,2022-12-14T20:21:15.489216,1.00271529,.0001815,1.9944,1.6320,218.1572,249.0731,0,U,45344,999,1042,0,-.122E-5,0
COSMOS 2545 [GLONASS-M],2020-018A,2022-12-14T16:10:08.193216,2.13102667,.0011623,64.8997,357.0612,249.5476,156.4513,0,U,45358,999,2137,0,-.42E-6,0
STARLINK-1279,2020-019A,2022-12-15T03:53:32.808192,15.06391735,.0001896,53.0538,36.2161,66.6149,293.5039,0,U,45360,999,15220,.95763E-5,-.139E-5,0
STARLINK-1301,2020-019B,2022-12-14T13:16:25.166784,15.06401508,.000165,53.0540,48.9517,55.0250,305.0893,0,U,45361,999,15198,.10468E-3,.1278E-4,0
STARLINK-1306,2020-019C,2022-12-14T14:22:46.069248,15.06394035,.0001793,53.0566,68.7564,53.1765,306.9388,0,U,45362,999,15170,.12301E-3,.1551E-4,0
STARLINK-1313,2020-019E,2022-12-15T03:43:13.190592,15.07009853,.0002362,53.0539,36.2093,59.7122,300.4101,0,U,45364,999,15220,.12789E-2,.19136E-3,0
STARLINK-1317,2020-019F,2022-12-14T18:37:12.259776,15.08658022,.0001149,52.9990,47.0278,57.3864,302.7236,0,U,45365,999,15196,.12226E-2,.19129E-3,0
STARLINK-1262,2020-019G,2022-12-14T21:59:14.093376,15.06397623,.0001731,53.0554,67.3193,44.3998,315.7130,0,U,45366,999,15176,.65351E-5,-.184E-5,0
STARLINK-1273,2020-019H,2022-12-14T22:31:05.048832,15.06390926,.0001644,53.0554,67.2198,59.4149,300.7002,0,U,45367,999,15176,-.6926E-6,-.292E-5,0
STARLINK-1276,2020-019J,2022-12-14T12:15:22.444416,15.06403290,.0001815,53.0561,69.1497,46.7424,313.3716,0,U,45368,999,15170,.1211E-4,-.101E-5,0
STARLINK-1277,2020-019K,2022-12-15T05:44:56.991264,15.06403208,.0001636,53.0569,65.8697,54.9860,305.1282,0,U,45369,999,15181,-.49953E-4,-.1026E-4,0
STARLINK-1281,2020-019L,2022-12-14T23:08:14.474688,15.06390673,.0001772,53.0547,67.1159,55.2310,304.8846,0,U,45370,999,15174,.28731E-4,.146E-5,0
STARLINK-1287,2020-019M,2022-12-14T22:13:47.482464,15.06395363,.0001689,53.0536,67.2665,40.6922,319.4193,0,U,45371,999,15176,.45783E-4,.4E-5,0
STARLINK-1288,2020-019N,2022-12-14T17:49:46.349184,15.06393684,.0001788,53.0556,68.0854,52.1554,307.9597,0,U,45372,999,15173,-.26599E-4,-.678E-5,0
STARLINK-1295,2020-019P,2022-12-14T17:23:13.732800,15.06398474,.0001675,53.0550,68.1778,43.8984,316.2138,0,U,45373,999,15173,.84629E-4,.979E-5,0
STARLINK-1300,2020-019Q,2022-12-14T10:55:45.376320,15.06425927,.0001706,53.0582,69.3946,40.4573,319.6543,0,U,45374,999,15169,-.28346E-3,-.4504E-4,0
STARLINK-1302,2020-019R,2022-12-14T22:25:47.245440,15.06380983,.0001329,53.0534,67.2281,54.7203,305.3910,0,U,45375,999,15176,-.16968E-3,-.2807E-4,0
STARLINK-1304,2020-019S,2022-12-14T14:54:36.585792,15.06399100,.0001698,53.0563,68.6335,48.8344,311.2791,0,U,45376,999,15171,.84638E-4,.979E-5,0
