BEIDOU-3 G2             
1 45344U 20017A   22348.84809594 -.00000122  00000+0  00000+0 0  9990
2 45344   1.9944   1.6320 0001815 218.1572 249.0731  1.00271529 10422
COSMOS 2545 [GLONASS-M] 
1 45358U 20018A   22348.67370594 -.00000042  00000+0  00000+0 0  9991
2 45358  64.8997 357.0612 0011623 249.5476 156.4513  2.13102667 21370
STARLINK-1279           
1 45360U 20019A   22349.16218528 -.00000139  00000+0  95763-5 0  9991
2 45360  53.0538  36.2161 0001896  66.6149 293.5039 15.06391735152200
STARLINK-1301           
1 45361U 20019B   22348.55306906  .00001278  00000+0  10468-3 0  9993
2 45361  53.0540  48.9517 0001650  55.0250 305.0893 15.06401508151983
STARLINK-1306           
1 45362U 20019C   22348.59914432  .00001551  00000+0  12301-3 0  9999
2 45362  53.0566  68.7564 0001793  53.1765 306.9388 15.06394035151707
STARLINK-1313           
1 45364U 20019E   22349.15501378  .00019136  00000+0  12789-2 0  9992
2 45364  53.0539  36.2093 0002362  59.7122 300.4101 15.07009853152208
STARLINK-1317           
1 45365U 20019F   22348.77583634  .00019129  00000+0  12226-2 0  9993
2 45365  52.9990  47.0278 0001149  57.3864 302.7236 15.08658022151967
STARLINK-1262           
1 45366U 20019G   22348.91613534 -.00000184  00000+0  65351-5 0  9995
2 45366  53.0554  67.3193 0001731  44.3998 315.7130 15.06397623151768
STARLINK-1273           
1 45367U 20019H   22348.93825288 -.00000292  00000+0 -69260-6 0  9994
2 45367  53.0554  67.2198 0001644  59.4149 300.7002 15.06390926151762
STARLINK-1276           
1 45368U 20019J   22348.51067644 -.00000101  00000+0  12110-4 0  9991
2 45368  53.0561  69.1497 0001815  46.7424 313.3716 15.06403290151704
STARLINK-1277           
1 45369U 20019K   22349.23954851 -.00001026  00000+0 -49953-4 0  9990
2 45369  53.0569  65.8697 0001636  54.9860 305.1282 15.06403208151812
STARLINK-1281           
1 45370U 20019L   22348.96405642  .00000146  00000+0  28731-4 0  9991
2 45370  53.0547  67.1159 0001772  55.2310 304.8846 15.06390673151748
STARLINK-1287           
1 45371U 20019M   22348.92624401  .00000400  00000+0  45783-4 0  9993
2 45371  53.0536  67.2665 0001689  40.6922 319.4193 15.06395363151764
STARLINK-1288           
1 45372U 20019N   22348.74289756 -.00000678  00000+0 -26599-4 0  9997
2 45372  53.0556  68.0854 0001788  52.1554 307.9597 15.06393684151736
STARLINK-1295           
1 45373U 20019P   22348.72446450  .00000979  00000+0  84629-4 0  9992
2 45373  53.0550  68.1778 0001675  43.8984 316.2138 15.06398474151732
STARLINK-1300           
1 45374U 20019Q   22348.45538630 -.00004504  00000+0 -28346-3 0  9998
2 45374  53.0582  69.3946 0001706  40.4573 319.6543 15.06425927151696
STARLINK-1302           
1 45375U 20019R   22348.93457460 -.00002807  00000+0 -16968-3 0  9994
2 45375  53.0534  67.2281 0001329  54.7203 305.3910 15.06380983151762
STARLINK-1304           
1 45376U 20019S   22348.62125678  .00000979  00000+0  84638-4 0  9990
2 45376  53.0563  68.6335 0001698  48.8344 311.2791 15.06399100151718
